[{"OBJECT_NAME":"LAPAN-A3","OBJECT_ID":"2016-040E","EPOCH":"2026-03-09T23:01:57.724896","MEAN_MOTION":15.3238951,"ECCENTRICITY":0.00109839,"INCLINATION":97.1488,"RA_OF_ASC_NODE":68.4254,"ARG_OF_PERICENTER":22.062,"MEAN_ANOMALY":338.1093,"EPHEMERIS_TYPE":0,"CLASSIFICATION_TYPE":"U","NORAD_CAT_ID":41603,"ELEMENT_SET_NO":999,"REV_AT_EPOCH":53961,"BSTAR":0.00017567445,"MEAN_MOTION_DOT":5.428e-5,"MEAN_MOTION_DDOT":0},{"OBJECT_NAME":"STARLINK-31371","OBJECT_ID":"2024-027K","EPOCH":"2026-03-09T22:31:29.379936","MEAN_MOTION":15.30189386,"ECCENTRICITY":0.00012762,"INCLINATION":53.1601,"RA_OF_ASC_NODE":308.6599,"ARG_OF_PERICENTER":63.5369,"MEAN_ANOMALY":296.5763,"EPHEMERIS_TYPE":0,"CLASSIFICATION_TYPE":"U","NORAD_CAT_ID":58940,"ELEMENT_SET_NO":999,"REV_AT_EPOCH":11736,"BSTAR":5.7336565e-5,"MEAN_MOTION_DOT":1.339e-5,"MEAN_MOTION_DDOT":0}]
